start=new Date('2022-03-03T00:00:00.000Z').valueOf();
sats=[{"SITE":"AFETR","ARG_OF_PERICENTER":"57.2500","TIME_SYSTEM":"UTC","GP_ID":"197657302","CLASSIFICATION_TYPE":"U","RA_OF_ASC_NODE":"295.7965","ELEMENT_SET_NO":"999","MEAN_ELEMENT_THEORY":"SGP4","OBJECT_TYPE":"PAYLOAD","PERIAPSIS":"546.002","TLE_LINE1":"1 44719U 19074G   22061.89757877 -.00000977  00000-0 -46732-4 0  9996","ECCENTRICITY":"0.00017850","MEAN_MOTION_DDOT":"0.0000000000000","NORAD_CAT_ID":"44719","PERIOD":"95.593","EPHEMERIS_TYPE":"0","FILE":"3341695","OBJECT_ID":"2019-074G","TLE_LINE2":"2 44719  53.0555 295.7965 0001785  57.2500 302.8661 15.06391898128640","APOAPSIS":"548.475","OBJECT_NAME":"STARLINK-1013","LAUNCH_DATE":"2019-11-11","REF_FRAME":"TEME","DECAY_DATE":null,"COUNTRY_CODE":"US","INCLINATION":"53.0555","EPOCH":"2022-03-02T21:32:30.805728","CENTER_NAME":"EARTH","REV_AT_EPOCH":"12864","MEAN_MOTION_DOT":"-0.00000977","RCS_SIZE":"LARGE","MEAN_ANOMALY":"302.8661","BSTAR":"-0.00004673200000","MEAN_MOTION":"15.06391898","SEMIMAJOR_AXIS":"6925.373"},{"OBJECT_TYPE":"PAYLOAD","PERIAPSIS":"546.185","TLE_LINE1":"1 44720U 19074H   22061.91599600  .00001384  00000-0  11177-3 0  9994","ECCENTRICITY":"0.00014600","MEAN_MOTION_DDOT":"0.0000000000000","PERIOD":"95.592","NORAD_CAT_ID":"44720","EPHEMERIS_TYPE":"0","FILE":"3341695","SITE":"AFETR","ARG_OF_PERICENTER":"64.0153","TIME_SYSTEM":"UTC","GP_ID":"197657553","CLASSIFICATION_TYPE":"U","ELEMENT_SET_NO":"999","RA_OF_ASC_NODE":"295.7053","MEAN_ELEMENT_THEORY":"SGP4","COUNTRY_CODE":"US","DECAY_DATE":null,"INCLINATION":"53.0543","EPOCH":"2022-03-02T21:59:02.054400","CENTER_NAME":"EARTH","REV_AT_EPOCH":"12752","MEAN_MOTION_DOT":"0.00001384","RCS_SIZE":"LARGE","MEAN_ANOMALY":"296.0986","BSTAR":"0.00011177000000","SEMIMAJOR_AXIS":"6925.331","MEAN_MOTION":"15.06405691","OBJECT_ID":"2019-074H","TLE_LINE2":"2 44720  53.0543 295.7053 0001460  64.0153 296.0986 15.06405691127524","APOAPSIS":"548.207","OBJECT_NAME":"STARLINK-1014","REF_FRAME":"TEME","LAUNCH_DATE":"2019-11-11"},{"OBJECT_ID":"2019-074J","TLE_LINE2":"2 44721  53.0551 295.7555 0001653  69.9228 290.1939 15.06404373127510","OBJECT_NAME":"STARLINK-1015","LAUNCH_DATE":"2019-11-11","REF_FRAME":"TEME","APOAPSIS":"548.345","DECAY_DATE":null,"COUNTRY_CODE":"US","CENTER_NAME":"EARTH","INCLINATION":"53.0551","EPOCH":"2022-03-02T21:43:06.829824","REV_AT_EPOCH":"12751","MEAN_MOTION_DOT":"0.00001293","BSTAR":"0.00010571000000","SEMIMAJOR_AXIS":"6925.335","MEAN_MOTION":"15.06404373","RCS_SIZE":"LARGE","MEAN_ANOMALY":"290.1939","SITE":"AFETR","TIME_SYSTEM":"UTC","ARG_OF_PERICENTER":"69.9228","CLASSIFICATION_TYPE":"U","GP_ID":"197656300","MEAN_ELEMENT_THEORY":"SGP4","ELEMENT_SET_NO":"999","RA_OF_ASC_NODE":"295.7555","OBJECT_TYPE":"PAYLOAD","PERIAPSIS":"546.055","TLE_LINE1":"1 44721U 19074J   22061.90494016  .00001293  00000-0  10571-3 0  9995","ECCENTRICITY":"0.00016530","MEAN_MOTION_DDOT":"0.0000000000000","PERIOD":"95.592","NORAD_CAT_ID":"44721","FILE":"3341695","EPHEMERIS_TYPE":"0"},{"PERIOD":"95.592","NORAD_CAT_ID":"44722","MEAN_MOTION_DDOT":"0.0000000000000","EPHEMERIS_TYPE":"0","FILE":"3341695","OBJECT_TYPE":"PAYLOAD","TLE_LINE1":"1 44722U 19074K   22061.90862727  .00000288  00000-0  38203-4 0  9990","ECCENTRICITY":"0.00013950","PERIAPSIS":"546.241","GP_ID":"197657050","CLASSIFICATION_TYPE":"U","RA_OF_ASC_NODE":"295.7427","ELEMENT_SET_NO":"999","MEAN_ELEMENT_THEORY":"SGP4","SITE":"AFETR","ARG_OF_PERICENTER":"81.8183","TIME_SYSTEM":"UTC","MEAN_MOTION_DOT":"0.00000288","REV_AT_EPOCH":"12752","MEAN_ANOMALY":"278.2964","RCS_SIZE":"LARGE","SEMIMAJOR_AXIS":"6925.342","MEAN_MOTION":"15.06402118","BSTAR":"0.00003820300000","COUNTRY_CODE":"US","DECAY_DATE":null,"EPOCH":"2022-03-02T21:48:25.396128","INCLINATION":"53.0549","CENTER_NAME":"EARTH","TLE_LINE2":"2 44722  53.0549 295.7427 0001395  81.8183 278.2964 15.06402118127523","APOAPSIS":"548.173","REF_FRAME":"TEME","LAUNCH_DATE":"2019-11-11","OBJECT_NAME":"STARLINK-1016","OBJECT_ID":"2019-074K"},{"TLE_LINE2":"2 44723  53.0527 295.6914 0001626  71.1459 288.9706 15.06406950127525","REF_FRAME":"TEME","LAUNCH_DATE":"2019-11-11","OBJECT_NAME":"STARLINK-1017","APOAPSIS":"548.318","OBJECT_ID":"2019-074L","MEAN_MOTION_DOT":"0.00001617","REV_AT_EPOCH":"12752","SEMIMAJOR_AXIS":"6925.327","MEAN_MOTION":"15.06406950","BSTAR":"0.00012741000000","MEAN_ANOMALY":"288.9706","RCS_SIZE":"LARGE","DECAY_DATE":null,"COUNTRY_CODE":"US","CENTER_NAME":"EARTH","EPOCH":"2022-03-02T22:09:39.305376","INCLINATION":"53.0527","CLASSIFICATION_TYPE":"U","GP_ID":"197657802","MEAN_ELEMENT_THEORY":"SGP4","ELEMENT_SET_NO":"999","RA_OF_ASC_NODE":"295.6914","SITE":"AFETR","TIME_SYSTEM":"UTC","ARG_OF_PERICENTER":"71.1459","PERIOD":"95.592","NORAD_CAT_ID":"44723","MEAN_MOTION_DDOT":"0.0000000000000","FILE":"3341695","EPHEMERIS_TYPE":"0","OBJECT_TYPE":"PAYLOAD","PERIAPSIS":"546.066","TLE_LINE1":"1 44723U 19074L   22061.92337159  .00001617  00000-0  12741-3 0  9994","ECCENTRICITY":"0.00016260"},{"BSTAR":"0.00005034900000","SEMIMAJOR_AXIS":"6925.358","MEAN_MOTION":"15.06396828","RCS_SIZE":"LARGE","MEAN_ANOMALY":"298.3236","REV_AT_EPOCH":"12751","MEAN_MOTION_DOT":"0.00000468","CENTER_NAME":"EARTH","INCLINATION":"53.0552","EPOCH":"2022-03-02T21:16:34.772448","COUNTRY_CODE":"US","DECAY_DATE":null,"OBJECT_NAME":"STARLINK-1019","LAUNCH_DATE":"2019-11-11","REF_FRAME":"TEME","APOAPSIS":"548.282","TLE_LINE2":"2 44724  53.0552 295.8484 0001529  61.7907 298.3236 15.06396828127517","OBJECT_ID":"2019-074M","FILE":"3341695","EPHEMERIS_TYPE":"0","MEAN_MOTION_DDOT":"0.0000000000000","PERIOD":"95.592","NORAD_CAT_ID":"44724","TLE_LINE1":"1 44724U 19074M   22061.88651357  .00000468  00000-0  50349-4 0  9999","ECCENTRICITY":"0.00015290","PERIAPSIS":"546.164","OBJECT_TYPE":"PAYLOAD","MEAN_ELEMENT_THEORY":"SGP4","ELEMENT_SET_NO":"999","RA_OF_ASC_NODE":"295.8484","CLASSIFICATION_TYPE":"U","GP_ID":"197658053","TIME_SYSTEM":"UTC","ARG_OF_PERICENTER":"61.7907","SITE":"AFETR"},{"ECCENTRICITY":"0.00017100","TLE_LINE1":"1 44725U 19074N   22061.95839334 -.00000849  00000-0 -38081-4 0  9995","PERIAPSIS":"546.025","OBJECT_TYPE":"PAYLOAD","EPHEMERIS_TYPE":"0","FILE":"3341695","PERIOD":"95.592","NORAD_CAT_ID":"44725","MEAN_MOTION_DDOT":"0.0000000000000","ARG_OF_PERICENTER":"65.9953","TIME_SYSTEM":"UTC","SITE":"AFETR","ELEMENT_SET_NO":"999","RA_OF_ASC_NODE":"315.5120","MEAN_ELEMENT_THEORY":"SGP4","GP_ID":"197656800","CLASSIFICATION_TYPE":"U","EPOCH":"2022-03-02T23:00:05.184576","INCLINATION":"53.0546","CENTER_NAME":"EARTH","COUNTRY_CODE":"US","DECAY_DATE":null,"MEAN_ANOMALY":"294.1215","RCS_SIZE":"LARGE","SEMIMAJOR_AXIS":"6925.344","MEAN_MOTION":"15.06401341","BSTAR":"-0.00003808100000","MEAN_MOTION_DOT":"-0.00000849","REV_AT_EPOCH":"12724","OBJECT_ID":"2019-074N","APOAPSIS":"548.394","REF_FRAME":"TEME","LAUNCH_DATE":"2019-11-11","OBJECT_NAME":"STARLINK-1020","TLE_LINE2":"2 44725  53.0546 315.5120 0001710  65.9953 294.1215 15.06401341127245"},{"CENTER_NAME":"EARTH","EPOCH":"2022-03-02T21:11:16.516320","INCLINATION":"53.0531","DECAY_DATE":null,"COUNTRY_CODE":"US","SEMIMAJOR_AXIS":"6925.370","MEAN_MOTION":"15.06393130","BSTAR":"0.00004764100000","MEAN_ANOMALY":"288.9264","RCS_SIZE":"LARGE","MEAN_MOTION_DOT":"0.00000428","REV_AT_EPOCH":"12751","OBJECT_ID":"2019-074P","LAUNCH_DATE":"2019-11-11","REF_FRAME":"TEME","OBJECT_NAME":"STARLINK-1021","APOAPSIS":"548.263","TLE_LINE2":"2 44726  53.0531 295.8709 0001485  71.1886 288.9264 15.06393130127517","TLE_LINE1":"1 44726U 19074P   22061.88283005  .00000428  00000-0  47641-4 0  9999","ECCENTRICITY":"0.00014850","PERIAPSIS":"546.206","OBJECT_TYPE":"PAYLOAD","FILE":"3341695","EPHEMERIS_TYPE":"0","PERIOD":"95.593","NORAD_CAT_ID":"44726","MEAN_MOTION_DDOT":"0.0000000000000","TIME_SYSTEM":"UTC","ARG_OF_PERICENTER":"71.1886","SITE":"AFETR","MEAN_ELEMENT_THEORY":"SGP4","ELEMENT_SET_NO":"999","RA_OF_ASC_NODE":"295.8709","CLASSIFICATION_TYPE":"U","GP_ID":"197656551"},{"OBJECT_ID":"2019-074Q","TLE_LINE2":"2 44727  53.0556 335.7042 0001927  56.9932 303.1242 15.06391934126978","OBJECT_NAME":"STARLINK-1022","LAUNCH_DATE":"2019-11-11","REF_FRAME":"TEME","APOAPSIS":"548.573","DECAY_DATE":null,"COUNTRY_CODE":"US","CENTER_NAME":"EARTH","INCLINATION":"53.0556","EPOCH":"2022-03-02T22:02:59.831520","REV_AT_EPOCH":"12697","MEAN_MOTION_DOT":"-0.00000711","BSTAR":"-0.00002885900000","SEMIMAJOR_AXIS":"6925.373","MEAN_MOTION":"15.06391934","RCS_SIZE":"LARGE","MEAN_ANOMALY":"303.1242","SITE":"AFETR","TIME_SYSTEM":"UTC","ARG_OF_PERICENTER":"56.9932","CLASSIFICATION_TYPE":"U","GP_ID":"197657303","MEAN_ELEMENT_THEORY":"SGP4","ELEMENT_SET_NO":"999","RA_OF_ASC_NODE":"335.7042","OBJECT_TYPE":"PAYLOAD","ECCENTRICITY":"0.00019270","TLE_LINE1":"1 44727U 19074Q   22061.91874805 -.00000711  00000-0 -28859-4 0  9995","PERIAPSIS":"545.904","MEAN_MOTION_DDOT":"0.0000000000000","PERIOD":"95.593","NORAD_CAT_ID":"44727","FILE":"3341695","EPHEMERIS_TYPE":"0"},{"SITE":"AFETR","TIME_SYSTEM":"UTC","ARG_OF_PERICENTER":"61.0241","CLASSIFICATION_TYPE":"U","GP_ID":"197657554","MEAN_ELEMENT_THEORY":"SGP4","RA_OF_ASC_NODE":"309.9032","ELEMENT_SET_NO":"999","OBJECT_TYPE":"PAYLOAD","TLE_LINE1":"1 44729U 19074S   22061.92178936  .00008157  00000-0  51401-3 0  9998","ECCENTRICITY":"0.00011640","PERIAPSIS":"535.499","NORAD_CAT_ID":"44729","PERIOD":"95.366","MEAN_MOTION_DDOT":"0.0000000000000","FILE":"3341695","EPHEMERIS_TYPE":"0","OBJECT_ID":"2019-074S","TLE_LINE2":"2 44729  53.0020 309.9032 0001164  61.0241 299.0865 15.09966562127299","REF_FRAME":"TEME","LAUNCH_DATE":"2019-11-11","OBJECT_NAME":"STARLINK-1024","APOAPSIS":"537.109","COUNTRY_CODE":"US","DECAY_DATE":null,"CENTER_NAME":"EARTH","EPOCH":"2022-03-02T22:07:22.600704","INCLINATION":"53.0020","MEAN_MOTION_DOT":"0.00008157","REV_AT_EPOCH":"12729","SEMIMAJOR_AXIS":"6914.439","MEAN_MOTION":"15.09966562","BSTAR":"0.00051401000000","MEAN_ANOMALY":"299.0865","RCS_SIZE":"LARGE"}];
